sat21283
1 21283U 75052U   20046.82538007 -.00000052  00000-0 -45999-4 0  9999
2 21283  99.7721 354.5237 0244114  93.6150 295.9562 12.97442744362724
